start=new Date('%Y-%m-41T00:00:00.000Z').valueOf();
sats=[{"DECAY_DATE":null,"OBJECT_ID":"2021-018S","FILE":"3100512","GP_ID":"183154844","APOAPSIS":"548.779","ARG_OF_PERICENTER":"77.2665","TLE_LINE1":"1 47803U 21018S   21232.77528878 -.00000115  00000-0  11211-4 0  9994","TIME_SYSTEM":"UTC","BSTAR":"0.00001121100000","SEMIMAJOR_AXIS":"6925.379","RA_OF_ASC_NODE":"132.2294","CENTER_NAME":"EARTH","CLASSIFICATION_TYPE":"U","ECCENTRICITY":"0.00022170","OBJECT_TYPE":"PAYLOAD","MEAN_MOTION_DOT":"-0.00000115","PERIOD":"95.593","ELEMENT_SET_NO":"999","OBJECT_NAME":"STARLINK-2384","MEAN_MOTION":"15.06390222","EPOCH":"2021-08-20T18:36:24.950592","MEAN_MOTION_DDOT":"0.0000000000000","TLE_LINE2":"2 47803  53.0561 132.2294 0002217  77.2665 282.8572 15.06390222 26385","EPHEMERIS_TYPE":"0","INCLINATION":"53.0561","MEAN_ANOMALY":"282.8572","PERIAPSIS":"545.708","SITE":"AFETR","REF_FRAME":"TEME","COUNTRY_CODE":"US","RCS_SIZE":"LARGE","MEAN_ELEMENT_THEORY":"SGP4","LAUNCH_DATE":"2021-03-11","REV_AT_EPOCH":"2638","NORAD_CAT_ID":"47803"},{"MEAN_MOTION_DOT":"0.00000548","PERIOD":"95.592","ELEMENT_SET_NO":"999","OBJECT_NAME":"STARLINK-2385","MEAN_MOTION":"15.06399619","EPOCH":"2021-08-20T18:57:37.841184","MEAN_MOTION_DDOT":"0.0000000000000","EPHEMERIS_TYPE":"0","TLE_LINE2":"2 47804  53.0551 132.1613 0001991  88.6446 271.4771 15.06399619 26384","INCLINATION":"53.0551","MEAN_ANOMALY":"271.4771","PERIAPSIS":"545.836","SITE":"AFETR","REF_FRAME":"TEME","COUNTRY_CODE":"US","RCS_SIZE":"LARGE","MEAN_ELEMENT_THEORY":"SGP4","LAUNCH_DATE":"2021-03-11","REV_AT_EPOCH":"2638","NORAD_CAT_ID":"47804","DECAY_DATE":null,"OBJECT_ID":"2021-018T","FILE":"3100512","GP_ID":"183155094","APOAPSIS":"548.594","ARG_OF_PERICENTER":"88.6446","TLE_LINE1":"1 47804U 21018T   21232.79002131  .00000548  00000-0  55722-4 0  9990","TIME_SYSTEM":"UTC","BSTAR":"0.00005572200000","SEMIMAJOR_AXIS":"6925.350","RA_OF_ASC_NODE":"132.1613","CENTER_NAME":"EARTH","CLASSIFICATION_TYPE":"U","ECCENTRICITY":"0.00019910","OBJECT_TYPE":"PAYLOAD"},{"MEAN_MOTION_DOT":"-0.00000403","OBJECT_NAME":"STARLINK-2386","MEAN_MOTION":"15.06391239","PERIOD":"95.593","ELEMENT_SET_NO":"999","EPOCH":"2021-08-20T19:12:12.286944","MEAN_MOTION_DDOT":"0.0000000000000","TLE_LINE2":"2 47805  53.0550 132.1152 0002138  80.2021 279.9209 15.06391239 26393","EPHEMERIS_TYPE":"0","INCLINATION":"53.0550","MEAN_ANOMALY":"279.9209","SITE":"AFETR","REF_FRAME":"TEME","PERIAPSIS":"545.760","RCS_SIZE":"LARGE","COUNTRY_CODE":"US","LAUNCH_DATE":"2021-03-11","MEAN_ELEMENT_THEORY":"SGP4","REV_AT_EPOCH":"2639","NORAD_CAT_ID":"47805","FILE":"3100512","DECAY_DATE":null,"OBJECT_ID":"2021-018U","GP_ID":"183156346","ARG_OF_PERICENTER":"80.2021","APOAPSIS":"548.721","BSTAR":"-0.00000815800000","TIME_SYSTEM":"UTC","TLE_LINE1":"1 47805U 21018U   21232.80014221 -.00000403  00000-0 -81580-5 0  9990","SEMIMAJOR_AXIS":"6925.375","CLASSIFICATION_TYPE":"U","RA_OF_ASC_NODE":"132.1152","CENTER_NAME":"EARTH","OBJECT_TYPE":"PAYLOAD","ECCENTRICITY":"0.00021380"},{"TLE_LINE2":"2 47806  53.0559 147.3059 0001928  46.6831 313.4319 15.06391143 26231","EPHEMERIS_TYPE":"0","MEAN_MOTION_DDOT":"0.0000000000000","EPOCH":"2021-08-20T18:14:28.599936","OBJECT_NAME":"STARLINK-2387","MEAN_MOTION":"15.06391143","ELEMENT_SET_NO":"999","PERIOD":"95.593","MEAN_MOTION_DOT":"-0.00001288","NORAD_CAT_ID":"47806","LAUNCH_DATE":"2021-03-11","MEAN_ELEMENT_THEORY":"SGP4","REV_AT_EPOCH":"2623","COUNTRY_CODE":"US","RCS_SIZE":"LARGE","SITE":"AFETR","REF_FRAME":"TEME","PERIAPSIS":"545.905","MEAN_ANOMALY":"313.4319","INCLINATION":"53.0559","ARG_OF_PERICENTER":"46.6831","APOAPSIS":"548.576","GP_ID":"183156096","FILE":"3100512","OBJECT_ID":"2021-018V","DECAY_DATE":null,"OBJECT_TYPE":"PAYLOAD","ECCENTRICITY":"0.00019280","CLASSIFICATION_TYPE":"U","CENTER_NAME":"EARTH","RA_OF_ASC_NODE":"147.3059","SEMIMAJOR_AXIS":"6925.376","BSTAR":"-0.00006761100000","TIME_SYSTEM":"UTC","TLE_LINE1":"1 47806U 21018V   21232.76005324 -.00001288  00000-0 -67611-4 0  9990"},{"CLASSIFICATION_TYPE":"U","RA_OF_ASC_NODE":"122.7737","CENTER_NAME":"EARTH","OBJECT_TYPE":"PAYLOAD","ECCENTRICITY":"0.00022160","BSTAR":"0.00006287000000","TIME_SYSTEM":"UTC","TLE_LINE1":"1 47807U 21018W   21232.68404587  .00000655  00000-0  62870-4 0  9993","SEMIMAJOR_AXIS":"6925.359","ARG_OF_PERICENTER":"91.9910","APOAPSIS":"548.759","FILE":"3100512","DECAY_DATE":null,"OBJECT_ID":"2021-018W","GP_ID":"183155345","RCS_SIZE":"LARGE","COUNTRY_CODE":"US","LAUNCH_DATE":"2021-03-11","MEAN_ELEMENT_THEORY":"SGP4","REV_AT_EPOCH":"2650","NORAD_CAT_ID":"47807","INCLINATION":"53.0287","MEAN_ANOMALY":"268.1333","REF_FRAME":"TEME","SITE":"AFETR","PERIAPSIS":"545.690","EPOCH":"2021-08-20T16:25:01.563168","MEAN_MOTION_DDOT":"0.0000000000000","EPHEMERIS_TYPE":"0","TLE_LINE2":"2 47807  53.0287 122.7737 0002216  91.9910 268.1333 15.06396519 26506","MEAN_MOTION_DOT":"0.00000655","OBJECT_NAME":"STARLINK-2388","MEAN_MOTION":"15.06396519","PERIOD":"95.592","ELEMENT_SET_NO":"999"},{"REV_AT_EPOCH":"2575","LAUNCH_DATE":"2021-03-11","MEAN_ELEMENT_THEORY":"SGP4","RCS_SIZE":"LARGE","COUNTRY_CODE":"US","NORAD_CAT_ID":"47808","MEAN_ANOMALY":"297.5449","INCLINATION":"53.0552","PERIAPSIS":"545.735","REF_FRAME":"TEME","SITE":"AFETR","EPOCH":"2021-08-20T05:56:41.283456","EPHEMERIS_TYPE":"0","TLE_LINE2":"2 47808  53.0552 149.6027 0002053  62.5748 297.5449 15.06418582 25759","MEAN_MOTION_DDOT":"0.0000000000000","MEAN_MOTION_DOT":"-0.00003715","ELEMENT_SET_NO":"999","PERIOD":"95.591","MEAN_MOTION":"15.06418582","OBJECT_NAME":"STARLINK-2389","CENTER_NAME":"EARTH","RA_OF_ASC_NODE":"149.6027","CLASSIFICATION_TYPE":"U","ECCENTRICITY":"0.00020530","OBJECT_TYPE":"PAYLOAD","TLE_LINE1":"1 47808U 21018X   21232.24770004 -.00003715  00000-0 -23046-3 0  9999","TIME_SYSTEM":"UTC","BSTAR":"-0.00023046000000","SEMIMAJOR_AXIS":"6925.292","APOAPSIS":"548.578","ARG_OF_PERICENTER":"62.5748","OBJECT_ID":"2021-018X","DECAY_DATE":null,"FILE":"3100331","GP_ID":"183129491"},{"PERIAPSIS":"545.991","REF_FRAME":"TEME","SITE":"AFETR","INCLINATION":"53.0549","MEAN_ANOMALY":"301.4948","NORAD_CAT_ID":"47809","COUNTRY_CODE":"US","RCS_SIZE":"LARGE","LAUNCH_DATE":"2021-03-11","MEAN_ELEMENT_THEORY":"SGP4","REV_AT_EPOCH":"2612","PERIOD":"95.592","ELEMENT_SET_NO":"999","OBJECT_NAME":"STARLINK-2390","MEAN_MOTION":"15.06405348","MEAN_MOTION_DOT":"-0.00000655","MEAN_MOTION_DDOT":"0.0000000000000","EPHEMERIS_TYPE":"0","TLE_LINE2":"2 47809  53.0549 153.3802 0001742  58.6211 301.4948 15.06405348 26121","EPOCH":"2021-08-20T12:27:30.395520","SEMIMAJOR_AXIS":"6925.332","TIME_SYSTEM":"UTC","TLE_LINE1":"1 47809U 21018Y   21232.51910180 -.00000655  00000-0 -25069-4 0  9999","BSTAR":"-0.00002506900000","ECCENTRICITY":"0.00017420","OBJECT_TYPE":"PAYLOAD","RA_OF_ASC_NODE":"153.3802","CENTER_NAME":"EARTH","CLASSIFICATION_TYPE":"U","GP_ID":"183155846","DECAY_DATE":null,"OBJECT_ID":"2021-018Y","FILE":"3100512","APOAPSIS":"548.404","ARG_OF_PERICENTER":"58.6211"},{"EPHEMERIS_TYPE":"0","TLE_LINE2":"2 47810  53.0564 163.2828 0001576  43.6229 316.4884 15.06396982 25987","MEAN_MOTION_DDOT":"0.0000000000000","EPOCH":"2021-08-20T13:03:20.452608","OBJECT_NAME":"STARLINK-2391","MEAN_MOTION":"15.06396982","ELEMENT_SET_NO":"999","PERIOD":"95.592","MEAN_MOTION_DOT":"-0.00000588","NORAD_CAT_ID":"47810","LAUNCH_DATE":"2021-03-11","REV_AT_EPOCH":"2598","MEAN_ELEMENT_THEORY":"SGP4","RCS_SIZE":"LARGE","COUNTRY_CODE":"US","SITE":"AFETR","REF_FRAME":"TEME","PERIAPSIS":"546.131","MEAN_ANOMALY":"316.4884","INCLINATION":"53.0564","ARG_OF_PERICENTER":"43.6229","APOAPSIS":"548.314","GP_ID":"183156597","FILE":"3100512","OBJECT_ID":"2021-018Z","DECAY_DATE":null,"OBJECT_TYPE":"PAYLOAD","ECCENTRICITY":"0.00015760","CLASSIFICATION_TYPE":"U","CENTER_NAME":"EARTH","RA_OF_ASC_NODE":"163.2828","SEMIMAJOR_AXIS":"6925.358","BSTAR":"-0.00002057000000","TIME_SYSTEM":"UTC","TLE_LINE1":"1 47810U 21018Z   21232.54398672 -.00000588  00000-0 -20570-4 0  9997"},{"CLASSIFICATION_TYPE":"U","CENTER_NAME":"EARTH","RA_OF_ASC_NODE":"132.1939","OBJECT_TYPE":"PAYLOAD","ECCENTRICITY":"0.00022560","BSTAR":"0.00005997200000","TLE_LINE1":"1 47811U 21018AA  21232.78264594  .00000612  00000-0  59972-4 0  9993","TIME_SYSTEM":"UTC","SEMIMAJOR_AXIS":"6925.345","ARG_OF_PERICENTER":"71.0624","APOAPSIS":"548.772","FILE":"3100512","OBJECT_ID":"2021-018AA","DECAY_DATE":null,"GP_ID":"183154845","MEAN_ELEMENT_THEORY":"SGP4","LAUNCH_DATE":"2021-03-11","REV_AT_EPOCH":"2644","COUNTRY_CODE":"US","RCS_SIZE":"LARGE","NORAD_CAT_ID":"47811","MEAN_ANOMALY":"289.0609","INCLINATION":"53.0556","SITE":"AFETR","REF_FRAME":"TEME","PERIAPSIS":"545.647","EPOCH":"2021-08-20T18:47:00.609216","TLE_LINE2":"2 47811  53.0556 132.1939 0002256  71.0624 289.0609 15.06401259 26443","EPHEMERIS_TYPE":"0","MEAN_MOTION_DDOT":"0.0000000000000","MEAN_MOTION_DOT":"0.00000612","OBJECT_NAME":"STARLINK-2392","MEAN_MOTION":"15.06401259","ELEMENT_SET_NO":"999","PERIOD":"95.592"},{"CLASSIFICATION_TYPE":"U","CENTER_NAME":"EARTH","RA_OF_ASC_NODE":"162.0307","OBJECT_TYPE":"PAYLOAD","ECCENTRICITY":"0.00016150","BSTAR":"0.00005092400000","TLE_LINE1":"1 47812U 21018AB  21232.82042748  .00000477  00000-0  50924-4 0  9991","TIME_SYSTEM":"UTC","SEMIMAJOR_AXIS":"6925.347","ARG_OF_PERICENTER":"71.8212","APOAPSIS":"548.331","FILE":"3100512","OBJECT_ID":"2021-018AB","DECAY_DATE":null,"GP_ID":"183155095","LAUNCH_DATE":"2021-03-11","REV_AT_EPOCH":"2596","MEAN_ELEMENT_THEORY":"SGP4","COUNTRY_CODE":"US","RCS_SIZE":"LARGE","NORAD_CAT_ID":"47812","MEAN_ANOMALY":"288.2953","INCLINATION":"53.0540","REF_FRAME":"TEME","SITE":"AFETR","PERIAPSIS":"546.094","EPOCH":"2021-08-20T19:41:24.934272","TLE_LINE2":"2 47812  53.0540 162.0307 0001615  71.8212 288.2953 15.06400393 25964","EPHEMERIS_TYPE":"0","MEAN_MOTION_DDOT":"0.0000000000000","MEAN_MOTION_DOT":"0.00000477","OBJECT_NAME":"STARLINK-2393","MEAN_MOTION":"15.06400393","ELEMENT_SET_NO":"999","PERIOD":"95.592"}];
